{
    "links": {
        "self": "http://www.neowsapp.com/rest/v1/neo/3761513?api_key=iIulBulltgU6a56xZRHN4H3l9WmuAYTsLGpBGhQ2"
    },
    "id": "3761513",
    "neo_reference_id": "3761513",
    "name": "(2016 UC26)",
    "designation": "2016 UC26",
    "nasa_jpl_url": "http://ssd.jpl.nasa.gov/sbdb.cgi?sstr=3761513",
    "absolute_magnitude_h": 22.6,
    "estimated_diameter": {
        "kilometers": {
            "estimated_diameter_min": 0.0802703167,
            "estimated_diameter_max": 0.1794898848
        },
        "meters": {
            "estimated_diameter_min": 80.2703167283,
            "estimated_diameter_max": 179.4898847799
        },
        "miles": {
            "estimated_diameter_min": 0.049877647,
            "estimated_diameter_max": 0.1115298092
        },
        "feet": {
            "estimated_diameter_min": 263.3540659348,
            "estimated_diameter_max": 588.8775935812
        }
    },
    "is_potentially_hazardous_asteroid": false,
    "close_approach_data": [
        {
            "close_approach_date": "2016-10-26",
            "close_approach_date_full": "2016-Oct-26 05:25",
            "epoch_date_close_approach": 1477459500000,
            "relative_velocity": {
                "kilometers_per_second": "12.8292532044",
                "kilometers_per_hour": "46185.3115359815",
                "miles_per_hour": "28697.7564930103"
            },
            "miss_distance": {
                "astronomical": "0.0758449869",
                "lunar": "29.5036999041",
                "kilometers": "11346248.490417903",
                "miles": "7050231.8883489414"
            },
            "orbiting_body": "Earth"
        }
    ],
    "orbital_data": {
        "orbit_id": "4",
        "orbit_determination_date": "2017-04-06 08:22:49",
        "first_observation_date": "2016-10-22",
        "last_observation_date": "2016-10-29",
        "data_arc_in_days": 7,
        "observations_used": 38,
        "orbit_uncertainty": "9",
        "minimum_orbit_intersection": ".0525114",
        "jupiter_tisserand_invariant": "3.556",
        "epoch_osculation": "2457685.5",
        "eccentricity": ".564419357935411",
        "semi_major_axis": "2.063905633536895",
        "inclination": "5.318382881804111",
        "ascending_node_longitude": "186.0129998805679",
        "orbital_period": "1083.011782695146",
        "perihelion_distance": ".8989973410167229",
        "perihelion_argument": "258.3837264432706",
        "aphelion_distance": "3.228813926057066",
        "perihelion_time": "2457724.230104790324",
        "mean_anomaly": "347.125867005972",
        "mean_motion": ".3324063558238641",
        "equinox": "J2000",
        "orbit_class": {
            "orbit_class_type": "APO",
            "orbit_class_description": "Near-Earth asteroid orbits which cross the Earth’s orbit similar to that of 1862 Apollo",
            "orbit_class_range": "a (semi-major axis) > 1.0 AU; q (perihelion) < 1.017 AU"
        }
    },
    "is_sentry_object": false
}